[{"OBJECT_NAME":"ALOS (DAICHI)","OBJECT_ID":"2006-002A","EPOCH":"2026-03-26T20:41:35.370816","MEAN_MOTION":14.69860279,"ECCENTRICITY":8.05e-5,"INCLINATION":98.1245,"RA_OF_ASC_NODE":41.7351,"ARG_OF_PERICENTER":103.5214,"MEAN_ANOMALY":256.6081,"EPHEMERIS_TYPE":0,"CLASSIFICATION_TYPE":"U","NORAD_CAT_ID":28931,"ELEMENT_SET_NO":999,"REV_AT_EPOCH":7600,"BSTAR":0.00022084,"MEAN_MOTION_DOT":1.271e-5,"MEAN_MOTION_DDOT":0},{"OBJECT_NAME":"H-2A R/B","OBJECT_ID":"2006-002B","EPOCH":"2026-03-26T19:54:27.961920","MEAN_MOTION":15.16788028,"ECCENTRICITY":0.0052382,"INCLINATION":98.244,"RA_OF_ASC_NODE":234.3351,"ARG_OF_PERICENTER":182.4313,"MEAN_ANOMALY":177.6672,"EPHEMERIS_TYPE":0,"CLASSIFICATION_TYPE":"U","NORAD_CAT_ID":28932,"ELEMENT_SET_NO":999,"REV_AT_EPOCH":9703,"BSTAR":0.00060719,"MEAN_MOTION_DOT":0.00012283,"MEAN_MOTION_DDOT":0},{"OBJECT_NAME":"RESURS-DK 1","OBJECT_ID":"2006-021A","EPOCH":"2026-03-26T09:30:51.943392","MEAN_MOTION":15.12849732,"ECCENTRICITY":9.33e-5,"INCLINATION":69.9337,"RA_OF_ASC_NODE":193.8061,"ARG_OF_PERICENTER":66.6761,"MEAN_ANOMALY":293.4503,"EPHEMERIS_TYPE":0,"CLASSIFICATION_TYPE":"U","NORAD_CAT_ID":29228,"ELEMENT_SET_NO":999,"REV_AT_EPOCH":9005,"BSTAR":0.00012896,"MEAN_MOTION_DOT":2.165e-5,"MEAN_MOTION_DDOT":0},{"OBJECT_NAME":"CZ-4B R/B","OBJECT_ID":"2006-046C","EPOCH":"2026-03-26T13:28:31.035648","MEAN_MOTION":15.17068958,"ECCENTRICITY":0.0032516,"INCLINATION":97.5562,"RA_OF_ASC_NODE":130.4242,"ARG_OF_PERICENTER":206.5182,"MEAN_ANOMALY":153.4389,"EPHEMERIS_TYPE":0,"CLASSIFICATION_TYPE":"U","NORAD_CAT_ID":29507,"ELEMENT_SET_NO":999,"REV_AT_EPOCH":6260,"BSTAR":0.00019964,"MEAN_MOTION_DOT":3.935e-5,"MEAN_MOTION_DDOT":0},{"OBJECT_NAME":"CZ-2C R/B","OBJECT_ID":"2007-010B","EPOCH":"2026-03-26T06:45:38.759040","MEAN_MOTION":14.20252036,"ECCENTRICITY":0.0057958,"INCLINATION":98.3996,"RA_OF_ASC_NODE":197.7303,"ARG_OF_PERICENTER":245.4224,"MEAN_ANOMALY":114.0907,"EPHEMERIS_TYPE":0,"CLASSIFICATION_TYPE":"U","NORAD_CAT_ID":31114,"ELEMENT_SET_NO":999,"REV_AT_EPOCH":98207,"BSTAR":8.3269e-5,"MEAN_MOTION_DOT":1.39e-6,"MEAN_MOTION_DDOT":0},{"OBJECT_NAME":"COSMO-SKYMED 1","OBJECT_ID":"2007-023A","EPOCH":"2026-03-26T20:20:09.439872","MEAN_MOTION":14.96656583,"ECCENTRICITY":9.39e-5,"INCLINATION":97.8879,"RA_OF_ASC_NODE":277.0192,"ARG_OF_PERICENTER":94.1794,"MEAN_ANOMALY":265.9534,"EPHEMERIS_TYPE":0,"CLASSIFICATION_TYPE":"U","NORAD_CAT_ID":31598,"ELEMENT_SET_NO":999,"REV_AT_EPOCH":1747,"BSTAR":0.00028482,"MEAN_MOTION_DOT":3.189e-5,"MEAN_MOTION_DDOT":0},{"OBJECT_NAME":"COSMOS 2428","OBJECT_ID":"2007-029A","EPOCH":"2026-03-26T14:18:41.391360","MEAN_MOTION":14.12948167,"ECCENTRICITY":0.0009675,"INCLINATION":70.9438,"RA_OF_ASC_NODE":167.8602,"ARG_OF_PERICENTER":259.7433,"MEAN_ANOMALY":100.2597,"EPHEMERIS_TYPE":0,"CLASSIFICATION_TYPE":"U","NORAD_CAT_ID":31792,"ELEMENT_SET_NO":999,"REV_AT_EPOCH":96648,"BSTAR":4.4665e-6,"MEAN_MOTION_DOT":-4.0e-7,"MEAN_MOTION_DDOT":0},{"OBJECT_NAME":"SL-16 R/B","OBJECT_ID":"2007-029B","EPOCH":"2026-03-26T16:30:34.164288","MEAN_MOTION":14.14842984,"ECCENTRICITY":0.0002619,"INCLINATION":70.9751,"RA_OF_ASC_NODE":136.655,"ARG_OF_PERICENTER":277.7542,"MEAN_ANOMALY":218.1714,"EPHEMERIS_TYPE":0,"CLASSIFICATION_TYPE":"U","NORAD_CAT_ID":31793,"ELEMENT_SET_NO":999,"REV_AT_EPOCH":96777,"BSTAR":8.0669e-5,"MEAN_MOTION_DOT":1.08e-6,"MEAN_MOTION_DDOT":0},{"OBJECT_NAME":"KORONAS-FOTON","OBJECT_ID":"2009-003A","EPOCH":"2026-03-26T21:05:48.655104","MEAN_MOTION":15.43767406,"ECCENTRICITY":0.0011797,"INCLINATION":82.4277,"RA_OF_ASC_NODE":257.998,"ARG_OF_PERICENTER":94.0368,"MEAN_ANOMALY":266.2228,"EPHEMERIS_TYPE":0,"CLASSIFICATION_TYPE":"U","NORAD_CAT_ID":33504,"ELEMENT_SET_NO":999,"REV_AT_EPOCH":94839,"BSTAR":0.00030251,"MEAN_MOTION_DOT":0.00013753,"MEAN_MOTION_DDOT":0},{"OBJECT_NAME":"CZ-2C R/B","OBJECT_ID":"2011-030B","EPOCH":"2026-03-26T19:57:08.792928","MEAN_MOTION":14.8128045,"ECCENTRICITY":0.0051179,"INCLINATION":97.8572,"RA_OF_ASC_NODE":42.7552,"ARG_OF_PERICENTER":295.4354,"MEAN_ANOMALY":92.4916,"EPHEMERIS_TYPE":0,"CLASSIFICATION_TYPE":"U","NORAD_CAT_ID":37731,"ELEMENT_SET_NO":999,"REV_AT_EPOCH":79263,"BSTAR":0.00018161,"MEAN_MOTION_DOT":1.393e-5,"MEAN_MOTION_DDOT":0},{"OBJECT_NAME":"H-2A R/B","OBJECT_ID":"2012-025E","EPOCH":"2026-03-26T17:25:49.680480","MEAN_MOTION":14.9528415,"ECCENTRICITY":0.0042705,"INCLINATION":98.476,"RA_OF_ASC_NODE":54.1408,"ARG_OF_PERICENTER":256.5869,"MEAN_ANOMALY":103.0588,"EPHEMERIS_TYPE":0,"CLASSIFICATION_TYPE":"U","NORAD_CAT_ID":38341,"ELEMENT_SET_NO":999,"REV_AT_EPOCH":75076,"BSTAR":0.00031579,"MEAN_MOTION_DOT":3.471e-5,"MEAN_MOTION_DDOT":0},{"OBJECT_NAME":"SHIJIAN-16 (SJ-16)","OBJECT_ID":"2013-057A","EPOCH":"2026-03-26T18:58:25.634208","MEAN_MOTION":14.92411506,"ECCENTRICITY":0.0015269,"INCLINATION":74.9723,"RA_OF_ASC_NODE":152.7164,"ARG_OF_PERICENTER":68.2686,"MEAN_ANOMALY":292.0126,"EPHEMERIS_TYPE":0,"CLASSIFICATION_TYPE":"U","NORAD_CAT_ID":39358,"ELEMENT_SET_NO":999,"REV_AT_EPOCH":67405,"BSTAR":9.5823e-5,"MEAN_MOTION_DOT":9.54e-6,"MEAN_MOTION_DDOT":0},{"OBJECT_NAME":"SL-4 R/B","OBJECT_ID":"2014-021B","EPOCH":"2026-03-25T19:01:41.820096","MEAN_MOTION":15.39717175,"ECCENTRICITY":0.00959711,"INCLINATION":51.6053,"RA_OF_ASC_NODE":258.6863,"ARG_OF_PERICENTER":161.6166,"MEAN_ANOMALY":198.8326,"EPHEMERIS_TYPE":0,"CLASSIFICATION_TYPE":"U","NORAD_CAT_ID":39679,"ELEMENT_SET_NO":999,"REV_AT_EPOCH":65875,"BSTAR":0.00037834437,"MEAN_MOTION_DOT":0.00017461,"MEAN_MOTION_DDOT":0},{"OBJECT_NAME":"ALOS-2","OBJECT_ID":"2014-029A","EPOCH":"2026-03-26T19:54:53.931168","MEAN_MOTION":14.79438718,"ECCENTRICITY":0.0001899,"INCLINATION":97.9185,"RA_OF_ASC_NODE":184.1774,"ARG_OF_PERICENTER":104.4812,"MEAN_ANOMALY":255.661,"EPHEMERIS_TYPE":0,"CLASSIFICATION_TYPE":"U","NORAD_CAT_ID":39766,"ELEMENT_SET_NO":999,"REV_AT_EPOCH":63940,"BSTAR":0.00024811,"MEAN_MOTION_DOT":1.801e-5,"MEAN_MOTION_DDOT":0},{"OBJECT_NAME":"YAOGAN-29","OBJECT_ID":"2015-069A","EPOCH":"2026-03-26T20:45:20.723616","MEAN_MOTION":14.83013006,"ECCENTRICITY":6.78e-5,"INCLINATION":98.0125,"RA_OF_ASC_NODE":114.3389,"ARG_OF_PERICENTER":9.9869,"MEAN_ANOMALY":350.1358,"EPHEMERIS_TYPE":0,"CLASSIFICATION_TYPE":"U","NORAD_CAT_ID":41038,"ELEMENT_SET_NO":999,"REV_AT_EPOCH":55842,"BSTAR":2.9619e-5,"MEAN_MOTION_DOT":1.87e-6,"MEAN_MOTION_DDOT":0},{"OBJECT_NAME":"ASTRO-H (HITOMI)","OBJECT_ID":"2016-012A","EPOCH":"2026-03-26T16:30:41.364864","MEAN_MOTION":15.10108075,"ECCENTRICITY":0.000961,"INCLINATION":30.9987,"RA_OF_ASC_NODE":246.8445,"ARG_OF_PERICENTER":142.6618,"MEAN_ANOMALY":217.4689,"EPHEMERIS_TYPE":0,"CLASSIFICATION_TYPE":"U","NORAD_CAT_ID":41337,"ELEMENT_SET_NO":999,"REV_AT_EPOCH":55480,"BSTAR":0.00017057,"MEAN_MOTION_DOT":2.946e-5,"MEAN_MOTION_DDOT":0},{"OBJECT_NAME":"HXMT (HUIYAN)","OBJECT_ID":"2017-034A","EPOCH":"2026-03-26T21:22:02.919648","MEAN_MOTION":15.17677656,"ECCENTRICITY":0.0032152,"INCLINATION":43.0144,"RA_OF_ASC_NODE":281.0294,"ARG_OF_PERICENTER":340.9821,"MEAN_ANOMALY":18.9825,"EPHEMERIS_TYPE":0,"CLASSIFICATION_TYPE":"U","NORAD_CAT_ID":42758,"ELEMENT_SET_NO":999,"REV_AT_EPOCH":48515,"BSTAR":0.00026464,"MEAN_MOTION_DOT":5.26e-5,"MEAN_MOTION_DDOT":0}]
